start=new Date('2023-01-19T00:00:00.000Z').valueOf();
sats=[{"REV_AT_EPOCH":"4287","RCS_SIZE":"LARGE","GP_ID":"223456429","CLASSIFICATION_TYPE":"U","COUNTRY_CODE":"US","NORAD_CAT_ID":"52310","OBJECT_NAME":"STARLINK-3688","MEAN_ELEMENT_THEORY":"SGP4","TLE_LINE2":"2 52310  53.2159 193.2037 0002505  48.6041 311.5166 15.08840593 42875","ECCENTRICITY":"0.00025050","SEMIMAJOR_AXIS":"6917.879","EPOCH":"2023-01-18T19:20:07.975968","LAUNCH_DATE":"2022-04-21","BSTAR":"0.00011924000000","CENTER_NAME":"EARTH","OBJECT_TYPE":"PAYLOAD","PERIAPSIS":"538.011","APOAPSIS":"541.477","INCLINATION":"53.2159","ELEMENT_SET_NO":"999","TIME_SYSTEM":"UTC","MEAN_ANOMALY":"311.5166","SITE":"AFETR","PERIOD":"95.438","OBJECT_ID":"2022-041BB","TLE_LINE1":"1 52310U 22041BB  23018.80564787  .00001610  00000-0  11924-3 0  9997","REF_FRAME":"TEME","DECAY_DATE":null,"MEAN_MOTION":"15.08840593","MEAN_MOTION_DOT":"0.00001610","RA_OF_ASC_NODE":"193.2037","EPHEMERIS_TYPE":"0","FILE":"3754254","ARG_OF_PERICENTER":"48.6041","MEAN_MOTION_DDOT":"0.0000000000000"},{"APOAPSIS":"541.807","BSTAR":"0.00018485000000","OBJECT_TYPE":"PAYLOAD","CENTER_NAME":"EARTH","PERIAPSIS":"537.654","ELEMENT_SET_NO":"999","TIME_SYSTEM":"UTC","INCLINATION":"53.2160","TLE_LINE2":"2 52311  53.2160 193.4757 0003002  43.7343 316.3887 15.08844816 42867","MEAN_ELEMENT_THEORY":"SGP4","ECCENTRICITY":"0.00030020","OBJECT_NAME":"STARLINK-3750","NORAD_CAT_ID":"52311","COUNTRY_CODE":"US","REV_AT_EPOCH":"4286","CLASSIFICATION_TYPE":"U","GP_ID":"223455678","RCS_SIZE":"LARGE","LAUNCH_DATE":"2022-04-21","SEMIMAJOR_AXIS":"6917.866","EPOCH":"2023-01-18T17:48:39.815136","EPHEMERIS_TYPE":"0","RA_OF_ASC_NODE":"193.4757","MEAN_MOTION_DOT":"0.00002655","MEAN_MOTION_DDOT":"0.0000000000000","FILE":"3754254","ARG_OF_PERICENTER":"43.7343","PERIOD":"95.437","SITE":"AFETR","MEAN_ANOMALY":"316.3887","DECAY_DATE":null,"REF_FRAME":"TEME","MEAN_MOTION":"15.08844816","TLE_LINE1":"1 52311U 22041BC  23018.74212749  .00002655  00000-0  18485-3 0  9998","OBJECT_ID":"2022-041BC"},{"SITE":"AFETR","MEAN_ANOMALY":"303.4058","PERIOD":"95.436","OBJECT_ID":"2022-041BD","DECAY_DATE":null,"REF_FRAME":"TEME","MEAN_MOTION":"15.08857809","TLE_LINE1":"1 52312U 22041BD  23018.77254480  .00020460  00000-0  12992-2 0  9990","MEAN_MOTION_DOT":"0.00020460","RA_OF_ASC_NODE":"193.3478","EPHEMERIS_TYPE":"0","FILE":"3754254","ARG_OF_PERICENTER":"56.7153","MEAN_MOTION_DDOT":"0.0000000000000","COUNTRY_CODE":"US","REV_AT_EPOCH":"4287","RCS_SIZE":"LARGE","GP_ID":"223455928","CLASSIFICATION_TYPE":"U","MEAN_ELEMENT_THEORY":"SGP4","TLE_LINE2":"2 52312  53.2127 193.3478 0002286  56.7153 303.4058 15.08857809 42870","ECCENTRICITY":"0.00022860","NORAD_CAT_ID":"52312","OBJECT_NAME":"STARLINK-3752","SEMIMAJOR_AXIS":"6917.826","EPOCH":"2023-01-18T18:32:27.870720","LAUNCH_DATE":"2022-04-21","BSTAR":"0.00129920000000","PERIAPSIS":"538.110","OBJECT_TYPE":"PAYLOAD","CENTER_NAME":"EARTH","APOAPSIS":"541.272","ELEMENT_SET_NO":"999","TIME_SYSTEM":"UTC","INCLINATION":"53.2127"},{"COUNTRY_CODE":"US","REV_AT_EPOCH":"4287","GP_ID":"223456179","RCS_SIZE":"LARGE","CLASSIFICATION_TYPE":"U","MEAN_ELEMENT_THEORY":"SGP4","TLE_LINE2":"2 52313  53.2135 193.3525 0002044  54.5689 305.5494 15.08853008 42879","ECCENTRICITY":"0.00020440","NORAD_CAT_ID":"52313","OBJECT_NAME":"STARLINK-3749","SEMIMAJOR_AXIS":"6917.841","EPOCH":"2023-01-18T18:31:04.230336","LAUNCH_DATE":"2022-04-21","BSTAR":"0.00081482000000","PERIAPSIS":"538.292","OBJECT_TYPE":"PAYLOAD","CENTER_NAME":"EARTH","APOAPSIS":"541.120","ELEMENT_SET_NO":"999","TIME_SYSTEM":"UTC","INCLINATION":"53.2135","SITE":"AFETR","MEAN_ANOMALY":"305.5494","PERIOD":"95.437","OBJECT_ID":"2022-041BE","DECAY_DATE":null,"REF_FRAME":"TEME","MEAN_MOTION":"15.08853008","TLE_LINE1":"1 52313U 22041BE  23018.77157674  .00012708  00000-0  81482-3 0  9995","MEAN_MOTION_DOT":"0.00012708","EPHEMERIS_TYPE":"0","RA_OF_ASC_NODE":"193.3525","FILE":"3754254","ARG_OF_PERICENTER":"54.5689","MEAN_MOTION_DDOT":"0.0000000000000"},{"SEMIMAJOR_AXIS":"6917.886","EPOCH":"2023-01-18T05:32:04.701408","LAUNCH_DATE":"2022-04-29","CLASSIFICATION_TYPE":"U","GP_ID":"223432124","RCS_SIZE":"LARGE","REV_AT_EPOCH":"4256","COUNTRY_CODE":"US","NORAD_CAT_ID":"52331","OBJECT_NAME":"STARLINK-3889","ECCENTRICITY":"0.00015430","MEAN_ELEMENT_THEORY":"SGP4","TLE_LINE2":"2 52331  53.2163 315.7792 0001543  88.8404 271.2765 15.08838135 42564","INCLINATION":"53.2163","TIME_SYSTEM":"UTC","ELEMENT_SET_NO":"999","CENTER_NAME":"EARTH","OBJECT_TYPE":"PAYLOAD","PERIAPSIS":"538.684","BSTAR":"0.00096689000000","APOAPSIS":"540.819","OBJECT_ID":"2022-045A","TLE_LINE1":"1 52331U 22045A   23018.23060997  .00015133  00000-0  96689-3 0  9991","MEAN_MOTION":"15.08838135","DECAY_DATE":null,"REF_FRAME":"TEME","MEAN_ANOMALY":"271.2765","SITE":"AFETR","PERIOD":"95.438","ARG_OF_PERICENTER":"88.8404","FILE":"3754235","MEAN_MOTION_DDOT":"0.0000000000000","MEAN_MOTION_DOT":"0.00015133","RA_OF_ASC_NODE":"315.7792","EPHEMERIS_TYPE":"0"},{"TLE_LINE1":"1 52332U 22045B   23018.90404512  .00011201  00000-0  72037-3 0  9994","MEAN_MOTION":"15.08859019","REF_FRAME":"TEME","DECAY_DATE":null,"OBJECT_ID":"2022-045B","PERIOD":"95.436","MEAN_ANOMALY":"274.3870","SITE":"AFETR","MEAN_MOTION_DDOT":"0.0000000000000","ARG_OF_PERICENTER":"85.7276","FILE":"3754254","RA_OF_ASC_NODE":"312.7476","EPHEMERIS_TYPE":"0","MEAN_MOTION_DOT":"0.00011201","LAUNCH_DATE":"2022-04-29","SEMIMAJOR_AXIS":"6917.822","EPOCH":"2023-01-18T21:41:49.498368","OBJECT_NAME":"STARLINK-3831","NORAD_CAT_ID":"52332","ECCENTRICITY":"0.00013470","TLE_LINE2":"2 52332  53.2186 312.7476 0001347  85.7276 274.3870 15.08859019 42667","MEAN_ELEMENT_THEORY":"SGP4","GP_ID":"223455179","RCS_SIZE":"LARGE","CLASSIFICATION_TYPE":"U","REV_AT_EPOCH":"4266","COUNTRY_CODE":"US","INCLINATION":"53.2186","TIME_SYSTEM":"UTC","ELEMENT_SET_NO":"999","APOAPSIS":"540.619","CENTER_NAME":"EARTH","OBJECT_TYPE":"PAYLOAD","PERIAPSIS":"538.755","BSTAR":"0.00072037000000"},{"ARG_OF_PERICENTER":"100.1276","FILE":"3753951","MEAN_MOTION_DDOT":"0.0000000000000","MEAN_MOTION_DOT":"0.00005056","EPHEMERIS_TYPE":"0","RA_OF_ASC_NODE":"316.6321","OBJECT_ID":"2022-045C","MEAN_MOTION":"15.08839927","DECAY_DATE":null,"REF_FRAME":"TEME","TLE_LINE1":"1 52333U 22045C   23018.03925702  .00005056  00000-0  33552-3 0  9998","SITE":"AFETR","MEAN_ANOMALY":"259.9883","PERIOD":"95.438","TIME_SYSTEM":"UTC","ELEMENT_SET_NO":"999","INCLINATION":"53.2173","OBJECT_TYPE":"PAYLOAD","CENTER_NAME":"EARTH","PERIAPSIS":"538.722","BSTAR":"0.00033552000000","APOAPSIS":"540.769","SEMIMAJOR_AXIS":"6917.881","EPOCH":"2023-01-18T00:56:31.806528","LAUNCH_DATE":"2022-04-29","COUNTRY_CODE":"US","GP_ID":"223423758","CLASSIFICATION_TYPE":"U","RCS_SIZE":"LARGE","REV_AT_EPOCH":"4252","ECCENTRICITY":"0.00014790","MEAN_ELEMENT_THEORY":"SGP4","TLE_LINE2":"2 52333  53.2173 316.6321 0001479 100.1276 259.9883 15.08839927 42528","NORAD_CAT_ID":"52333","OBJECT_NAME":"STARLINK-3847"},{"APOAPSIS":"540.772","PERIAPSIS":"538.761","OBJECT_TYPE":"PAYLOAD","CENTER_NAME":"EARTH","BSTAR":"0.00026847000000","INCLINATION":"53.2152","TIME_SYSTEM":"UTC","ELEMENT_SET_NO":"999","NORAD_CAT_ID":"52334","OBJECT_NAME":"STARLINK-3880","ECCENTRICITY":"0.00014540","MEAN_ELEMENT_THEORY":"SGP4","TLE_LINE2":"2 52334  53.2152 312.5390 0001454  71.5480 288.5670 15.08833122 42666","GP_ID":"223432284","RCS_SIZE":"LARGE","CLASSIFICATION_TYPE":"U","REV_AT_EPOCH":"4266","COUNTRY_CODE":"US","LAUNCH_DATE":"2022-04-29","SEMIMAJOR_AXIS":"6917.901","EPOCH":"2023-01-18T22:56:00.818592","EPHEMERIS_TYPE":"0","RA_OF_ASC_NODE":"312.5390","MEAN_MOTION_DOT":"0.00003987","MEAN_MOTION_DDOT":"0.0000000000000","ARG_OF_PERICENTER":"71.5480","FILE":"3754236","PERIOD":"95.438","MEAN_ANOMALY":"288.5670","SITE":"AFETR","TLE_LINE1":"1 52334U 22045D   23018.95556503  .00003987  00000-0  26847-3 0  9999","MEAN_MOTION":"15.08833122","REF_FRAME":"TEME","DECAY_DATE":null,"OBJECT_ID":"2022-045D"},{"INCLINATION":"53.2142","ELEMENT_SET_NO":"999","TIME_SYSTEM":"UTC","APOAPSIS":"540.961","BSTAR":"0.00132720000000","OBJECT_TYPE":"PAYLOAD","PERIAPSIS":"538.495","CENTER_NAME":"EARTH","LAUNCH_DATE":"2022-04-29","SEMIMAJOR_AXIS":"6917.863","EPOCH":"2023-01-18T13:18:25.059744","NORAD_CAT_ID":"52335","OBJECT_NAME":"STARLINK-3814","MEAN_ELEMENT_THEORY":"SGP4","TLE_LINE2":"2 52335  53.2142 314.3352 0001782  76.5600 283.5591 15.08845651 42619","ECCENTRICITY":"0.00017820","REV_AT_EPOCH":"4261","GP_ID":"223422757","RCS_SIZE":"LARGE","CLASSIFICATION_TYPE":"U","COUNTRY_CODE":"US","MEAN_MOTION_DDOT":"0.0000000000000","FILE":"3753951","ARG_OF_PERICENTER":"76.5600","RA_OF_ASC_NODE":"314.3352","EPHEMERIS_TYPE":"0","MEAN_MOTION_DOT":"0.00020901","TLE_LINE1":"1 52335U 22045E   23018.55445671  .00020901  00000-0  13272-2 0  9991","REF_FRAME":"TEME","DECAY_DATE":null,"MEAN_MOTION":"15.08845651","OBJECT_ID":"2022-045E","PERIOD":"95.437","MEAN_ANOMALY":"283.5591","SITE":"AFETR"},{"MEAN_MOTION_DDOT":"0.0000000000000","ARG_OF_PERICENTER":"92.7348","FILE":"3753951","RA_OF_ASC_NODE":"314.3671","EPHEMERIS_TYPE":"0","MEAN_MOTION_DOT":"0.00008006","TLE_LINE1":"1 52336U 22045F   23018.54805598  .00008006  00000-0  52017-3 0  9992","MEAN_MOTION":"15.08865874","REF_FRAME":"TEME","DECAY_DATE":null,"OBJECT_ID":"2022-045F","PERIOD":"95.436","MEAN_ANOMALY":"267.3858","SITE":"AFETR","INCLINATION":"53.2138","TIME_SYSTEM":"UTC","ELEMENT_SET_NO":"999","APOAPSIS":"540.954","OBJECT_TYPE":"PAYLOAD","CENTER_NAME":"EARTH","PERIAPSIS":"538.379","BSTAR":"0.00052017000000","LAUNCH_DATE":"2022-04-29","SEMIMAJOR_AXIS":"6917.801","EPOCH":"2023-01-18T13:09:12.036672","NORAD_CAT_ID":"52336","OBJECT_NAME":"STARLINK-3823","ECCENTRICITY":"0.00018610","TLE_LINE2":"2 52336  53.2138 314.3671 0001861  92.7348 267.3858 15.08865874 42611","MEAN_ELEMENT_THEORY":"SGP4","GP_ID":"223423007","CLASSIFICATION_TYPE":"U","RCS_SIZE":"LARGE","REV_AT_EPOCH":"4261","COUNTRY_CODE":"US"}];
